{"type": "FeatureCollection", "features": [ {"type": "Feature", "properties": {"norad_id": 34547, "name": "COSMOS 2251 DEB", "group": "cosmos-2251-debris", "lat": 24.315865865483076, "lon": 93.41076587981854, "alt_km": 661.0063545350504, "timestamp": "2025-12-20T07:33:51.207550+00:00", "meta": {"OBJECT_NAME": "COSMOS 2251 DEB", "OBJECT_ID": "1993-036UH", "EPOCH": "2025-12-18T22:50:15.370656", "MEAN_MOTION": 14.72476564, "ECCENTRICITY": 0.00166938, "INCLINATION": 74.0316, "RA_OF_ASC_NODE": 88.6306, "ARG_OF_PERICENTER": 167.5365, "MEAN_ANOMALY": 192.6223, "EPHEMERIS_TYPE": 0, "CLASSIFICATION_TYPE": "U", "NORAD_CAT_ID": 34547, "ELEMENT_SET_NO": 999, "REV_AT_EPOCH": 88613, "BSTAR": 0.0013141249, "MEAN_MOTION_DOT": 8.336e-05, "MEAN_MOTION_DDOT": 0}, "tle": {"line1": "1 34547U 93036UH  25352.95156679  .00008336  00000+0  13141-2 0  9990", "line2": "2 34547  74.0316  88.6306 0016693 167.5365 192.6223 14.72476564886132"}}, "geometry": {"type": "Point", "coordinates": [93.41076587981854, 24.315865865483076]}}, {"type": "Feature", "properties": {"norad_id": 34553, "name": "COSMOS 2251 DEB", "group": "cosmos-2251-debris", "lat": -58.32330483458753, "lon": 25.14248781127331, "alt_km": 693.8221375838193, "timestamp": "2025-12-20T07:33:51.207561+00:00", "meta": {"OBJECT_NAME": "COSMOS 2251 DEB", "OBJECT_ID": "1993-036UP", "EPOCH": "2025-12-19T07:38:57.477984", "MEAN_MOTION": 14.57779976, "ECCENTRICITY": 0.0019139, "INCLINATION": 74.0238, "RA_OF_ASC_NODE": 179.3741, "ARG_OF_PERICENTER": 256.193, "MEAN_ANOMALY": 158.8027, "EPHEMERIS_TYPE": 0, "CLASSIFICATION_TYPE": "U", "NORAD_CAT_ID": 34553, "ELEMENT_SET_NO": 999, "REV_AT_EPOCH": 88192, "BSTAR": 0.00076906, "MEAN_MOTION_DOT": 3.497e-05, "MEAN_MOTION_DDOT": 0}, "tle": {"line1": "1 34553U 93036UP  25353.31872081  .00003497  00000+0  76906-3 0  9992", "line2": "2 34553  74.0238 179.3741 0019139 256.1930 158.8027 14.57779976881928"}}, "geometry": {"type": "Point", "coordinates": [25.14248781127331, -58.32330483458753]}}, {"type": "Feature", "properties": {"norad_id": 34554, "name": "COSMOS 2251 DEB", "group": "cosmos-2251-debris", "lat": 11.06387246416427, "lon": 101.8358611583091, "alt_km": 782.9282159931599, "timestamp": "2025-12-20T07:33:51.207571+00:00", "meta": {"OBJECT_NAME": "COSMOS 2251 DEB", "OBJECT_ID": "1993-036UQ", "EPOCH": "2025-12-18T13:50:31.745184", "MEAN_MOTION": 14.37950273, "ECCENTRICITY": 0.00232506, "INCLINATION": 74.0391, "RA_OF_ASC_NODE": 288.2435, "ARG_OF_PERICENTER": 349.3985, "MEAN_ANOMALY": 183.4669, "EPHEMERIS_TYPE": 0, "CLASSIFICATION_TYPE": "U", "NORAD_CAT_ID": 34554, "ELEMENT_SET_NO": 999, "REV_AT_EPOCH": 87839, "BSTAR": 0.00025927252, "MEAN_MOTION_DOT": 7.59e-06, "MEAN_MOTION_DDOT": 0}, "tle": {"line1": "1 34554U 93036UQ  25352.57675631  .00000759  00000+0  25927-3 0  9997", "line2": "2 34554  74.0391 288.2435 0023250 349.3985 183.4669 14.37950273878395"}}, "geometry": {"type": "Point", "coordinates": [101.8358611583091, 11.06387246416427]}}, {"type": "Feature", "properties": {"norad_id": 34556, "name": "COSMOS 2251 DEB", "group": "cosmos-2251-debris", "lat": -22.97459491607104, "lon": 102.98554585960315, "alt_km": 645.4452299290251, "timestamp": "2025-12-20T07:33:51.207581+00:00", "meta": {"OBJECT_NAME": "COSMOS 2251 DEB", "OBJECT_ID": "1993-036US", "EPOCH": "2025-12-19T10:53:06.238752", "MEAN_MOTION": 14.77997047, "ECCENTRICITY": 0.0006967, "INCLINATION": 74.016, "RA_OF_ASC_NODE": 111.6585, "ARG_OF_PERICENTER": 172.0151, "MEAN_ANOMALY": 261.4473, "EPHEMERIS_TYPE": 0, "CLASSIFICATION_TYPE": "U", "NORAD_CAT_ID": 34556, "ELEMENT_SET_NO": 999, "REV_AT_EPOCH": 88428, "BSTAR": 0.0013856, "MEAN_MOTION_DOT": 9.984e-05, "MEAN_MOTION_DDOT": 0}, "tle": {"line1": "1 34556U 93036US  25353.45354443  .00009984  00000+0  13856-2 0  9998", "line2": "2 34556  74.0160 111.6585 0006967 172.0151 261.4473 14.77997047884287"}}, "geometry": {"type": "Point", "coordinates": [102.98554585960315, -22.97459491607104]}}, {"type": "Feature", "properties": {"norad_id": 34560, "name": "COSMOS 2251 DEB", "group": "cosmos-2251-debris", "lat": 67.89331835575894, "lon": 172.2560309820244, "alt_km": 653.7017172704536, "timestamp": "2025-12-20T07:33:51.207591+00:00", "meta": {"OBJECT_NAME": "COSMOS 2251 DEB", "OBJECT_ID": "1993-036UW", "EPOCH": "2025-12-19T20:21:56.175840", "MEAN_MOTION": 14.72307807, "ECCENTRICITY": 0.00141207, "INCLINATION": 74.0168, "RA_OF_ASC_NODE": 128.2848, "ARG_OF_PERICENTER": 210.2842, "MEAN_ANOMALY": 272.2412, "EPHEMERIS_TYPE": 0, "CLASSIFICATION_TYPE": "U", "NORAD_CAT_ID": 34560, "ELEMENT_SET_NO": 999, "REV_AT_EPOCH": 88356, "BSTAR": 0.0013152024, "MEAN_MOTION_DOT": 8.306e-05, "MEAN_MOTION_DDOT": 0}, "tle": {"line1": "1 34560U 93036UW  25353.84856685  .00008306  00000+0  13152-2 0  9997", "line2": "2 34560  74.0168 128.2848 0014120 210.2842 272.2412 14.72307807883565"}}, "geometry": {"type": "Point", "coordinates": [172.2560309820244, 67.89331835575894]}}, {"type": "Feature", "properties": {"norad_id": 34563, "name": "COSMOS 2251 DEB", "group": "cosmos-2251-debris", "lat": -37.21974777181002, "lon": 22.122727322768586, "alt_km": 738.706349440261, "timestamp": "2025-12-20T07:33:51.207601+00:00", "meta": {"OBJECT_NAME": "COSMOS 2251 DEB", "OBJECT_ID": "1993-036UZ", "EPOCH": "2025-12-19T22:34:15.155616", "MEAN_MOTION": 14.46530297, "ECCENTRICITY": 0.00138947, "INCLINATION": 74.0369, "RA_OF_ASC_NODE": 190.2646, "ARG_OF_PERICENTER": 283.8851, "MEAN_ANOMALY": 144.5704, "EPHEMERIS_TYPE": 0, "CLASSIFICATION_TYPE": "U", "NORAD_CAT_ID": 34563, "ELEMENT_SET_NO": 999, "REV_AT_EPOCH": 88301, "BSTAR": 0.00029527481, "MEAN_MOTION_DOT": 1.038e-05, "MEAN_MOTION_DDOT": 0}, "tle": {"line1": "1 34563U 93036UZ  25353.94045319  .00001038  00000+0  29527-3 0  9994", "line2": "2 34563  74.0369 190.2646 0013894 283.8851 144.5704 14.46530297883016"}}, "geometry": {"type": "Point", "coordinates": [22.122727322768586, -37.21974777181002]}}, {"type": "Feature", "properties": {"norad_id": 34564, "name": "COSMOS 2251 DEB", "group": "cosmos-2251-debris", "lat": -18.373259805559663, "lon": 49.4537155115126, "alt_km": 769.2532326559067, "timestamp": "2025-12-20T07:33:51.207611+00:00", "meta": {"OBJECT_NAME": "COSMOS 2251 DEB", "OBJECT_ID": "1993-036VA", "EPOCH": "2025-12-19T19:31:52.536864", "MEAN_MOTION": 14.40701626, "ECCENTRICITY": 0.00192772, "INCLINATION": 74.0318, "RA_OF_ASC_NODE": 224.9239, "ARG_OF_PERICENTER": 327.8294, "MEAN_ANOMALY": 152.0353, "EPHEMERIS_TYPE": 0, "CLASSIFICATION_TYPE": "U", "NORAD_CAT_ID": 34564, "ELEMENT_SET_NO": 999, "REV_AT_EPOCH": 88108, "BSTAR": 0.00017787725, "MEAN_MOTION_DOT": 5.43e-06, "MEAN_MOTION_DDOT": 0}, "tle": {"line1": "1 34564U 93036VA  25353.81380251  .00000543  00000+0  17788-3 0  9994", "line2": "2 34564  74.0318 224.9239 0019277 327.8294 152.0353 14.40701626881084"}}, "geometry": {"type": "Point", "coordinates": [49.4537155115126, -18.373259805559663]}}, {"type": "Feature", "properties": {"norad_id": 34567, "name": "COSMOS 2251 DEB", "group": "cosmos-2251-debris", "lat": 28.584353990110667, "lon": -45.82393535983565, "alt_km": 787.8249876471864, "timestamp": "2025-12-20T07:33:51.207621+00:00", "meta": {"OBJECT_NAME": "COSMOS 2251 DEB", "OBJECT_ID": "1993-036VD", "EPOCH": "2025-12-19T21:18:12.320640", "MEAN_MOTION": 14.24023935, "ECCENTRICITY": 0.00742559, "INCLINATION": 74.0406, "RA_OF_ASC_NODE": 143.9154, "ARG_OF_PERICENTER": 216.6721, "MEAN_ANOMALY": 263.2898, "EPHEMERIS_TYPE": 0, "CLASSIFICATION_TYPE": "U", "NORAD_CAT_ID": 34567, "ELEMENT_SET_NO": 999, "REV_AT_EPOCH": 87226, "BSTAR": 0.00017424845, "MEAN_MOTION_DOT": 3.86e-06, "MEAN_MOTION_DDOT": 0}, "tle": {"line1": "1 34567U 93036VD  25353.88764260  .00000386  00000+0  17425-3 0  9993", "line2": "2 34567  74.0406 143.9154 0074255 216.6721 263.2898 14.24023935872269"}}, "geometry": {"type": "Point", "coordinates": [-45.82393535983565, 28.584353990110667]}}, {"type": "Feature", "properties": {"norad_id": 34569, "name": "COSMOS 2251 DEB", "group": "cosmos-2251-debris", "lat": -22.802888730979326, "lon": 177.5050694399989, "alt_km": 720.6783785503258, "timestamp": "2025-12-20T07:33:51.207631+00:00", "meta": {"OBJECT_NAME": "COSMOS 2251 DEB", "OBJECT_ID": "1993-036VF", "EPOCH": "2025-12-19T00:14:44.283264", "MEAN_MOTION": 14.24767816, "ECCENTRICITY": 0.01575762, "INCLINATION": 73.9892, "RA_OF_ASC_NODE": 186.7976, "ARG_OF_PERICENTER": 13.7528, "MEAN_ANOMALY": 112.9889, "EPHEMERIS_TYPE": 0, "CLASSIFICATION_TYPE": "U", "NORAD_CAT_ID": 34569, "ELEMENT_SET_NO": 999, "REV_AT_EPOCH": 87057, "BSTAR": 0.00035668833, "MEAN_MOTION_DOT": 9.19e-06, "MEAN_MOTION_DDOT": 0}, "tle": {"line1": "1 34569U 93036VF  25353.01023476  .00000919  00000+0  35669-3 0  9999", "line2": "2 34569  73.9892 186.7976 0157576  13.7528 112.9889 14.24767816870579"}}, "geometry": {"type": "Point", "coordinates": [177.5050694399989, -22.802888730979326]}}, {"type": "Feature", "properties": {"norad_id": 34570, "name": "COSMOS 2251 DEB", "group": "cosmos-2251-debris", "lat": -50.13841593079874, "lon": -175.04856865878784, "alt_km": 1004.0054554181634, "timestamp": "2025-12-20T07:33:51.207641+00:00", "meta": {"OBJECT_NAME": "COSMOS 2251 DEB", "OBJECT_ID": "1993-036VG", "EPOCH": "2025-12-17T14:47:22.949376", "MEAN_MOTION": 13.99827814, "ECCENTRICITY": 0.01902686, "INCLINATION": 73.9566, "RA_OF_ASC_NODE": 209.802, "ARG_OF_PERICENTER": 91.1991, "MEAN_ANOMALY": 301.5791, "EPHEMERIS_TYPE": 0, "CLASSIFICATION_TYPE": "U", "NORAD_CAT_ID": 34570, "ELEMENT_SET_NO": 999, "REV_AT_EPOCH": 85669, "BSTAR": 0.00040162603, "MEAN_MOTION_DOT": 6.66e-06, "MEAN_MOTION_DDOT": 0}, "tle": {"line1": "1 34570U 93036VG  25351.61623784  .00000666  00000+0  40163-3 0  9997", "line2": "2 34570  73.9566 209.8020 0190268  91.1991 301.5791 13.99827814856696"}}, "geometry": {"type": "Point", "coordinates": [-175.04856865878784, -50.13841593079874]}}]}